[{"OBJECT_NAME":"QIANFAN-62","OBJECT_ID":"2025-016H","EPOCH":"2026-03-09T23:45:46.651392","MEAN_MOTION":13.50996786,"ECCENTRICITY":0.00182649,"INCLINATION":88.9681,"RA_OF_ASC_NODE":94.0713,"ARG_OF_PERICENTER":91.7435,"MEAN_ANOMALY":268.5808,"EPHEMERIS_TYPE":0,"CLASSIFICATION_TYPE":"U","NORAD_CAT_ID":62792,"ELEMENT_SET_NO":999,"REV_AT_EPOCH":5901,"BSTAR":3.3287109e-5,"MEAN_MOTION_DOT":3.4e-7,"MEAN_MOTION_DDOT":0},{"OBJECT_NAME":"COSMOS 970 DEB","OBJECT_ID":"1977-121CR","EPOCH":"2026-03-08T06:07:13.950912","MEAN_MOTION":13.7274537,"ECCENTRICITY":0.01242672,"INCLINATION":65.8296,"RA_OF_ASC_NODE":239.6194,"ARG_OF_PERICENTER":216.0593,"MEAN_ANOMALY":321.5568,"EPHEMERIS_TYPE":0,"CLASSIFICATION_TYPE":"U","NORAD_CAT_ID":64980,"ELEMENT_SET_NO":999,"REV_AT_EPOCH":9339,"BSTAR":0.00057013097,"MEAN_MOTION_DOT":4.74e-6,"MEAN_MOTION_DDOT":0}]
